{"type": "FeatureCollection", "features": [ {"type": "Feature", "properties": {"norad_id": 34304, "name": "COSMOS 2251 DEB", "group": "cosmos-2251-debris", "lat": -45.44067341772188, "lon": -62.54849581829403, "alt_km": 680.3552250713519, "timestamp": "2025-12-24T16:52:41.931367+00:00", "meta": {"OBJECT_NAME": "COSMOS 2251 DEB", "OBJECT_ID": "1993-036NA", "EPOCH": "2025-12-24T07:46:24.018240", "MEAN_MOTION": 14.37968395, "ECCENTRICITY": 0.01289676, "INCLINATION": 74.0138, "RA_OF_ASC_NODE": 101.2264, "ARG_OF_PERICENTER": 236.6825, "MEAN_ANOMALY": 188.1641, "EPHEMERIS_TYPE": 0, "CLASSIFICATION_TYPE": "U", "NORAD_CAT_ID": 34304, "ELEMENT_SET_NO": 999, "REV_AT_EPOCH": 87463, "BSTAR": 0.0016964554, "MEAN_MOTION_DOT": 5.622e-05, "MEAN_MOTION_DDOT": 0}, "tle": {"line1": "1 34304U 93036NA  25358.32388910  .00005622  00000+0  16965-2 0  9995", "line2": "2 34304  74.0138 101.2264 0128967 236.6825 188.1641 14.37968395874632"}}, "geometry": {"type": "Point", "coordinates": [-62.54849581829403, -45.44067341772188]}}, {"type": "Feature", "properties": {"norad_id": 34307, "name": "COSMOS 2251 DEB", "group": "cosmos-2251-debris", "lat": 66.75001062319325, "lon": -24.36464894391642, "alt_km": 853.2103420688054, "timestamp": "2025-12-24T16:52:41.931377+00:00", "meta": {"OBJECT_NAME": "COSMOS 2251 DEB", "OBJECT_ID": "1993-036ND", "EPOCH": "2025-12-24T04:26:08.180160", "MEAN_MOTION": 13.54338868, "ECCENTRICITY": 0.03917898, "INCLINATION": 74.0541, "RA_OF_ASC_NODE": 294.7509, "ARG_OF_PERICENTER": 123.1652, "MEAN_ANOMALY": 306.2657, "EPHEMERIS_TYPE": 0, "CLASSIFICATION_TYPE": "U", "NORAD_CAT_ID": 34307, "ELEMENT_SET_NO": 999, "REV_AT_EPOCH": 83017, "BSTAR": 0.0007607421, "MEAN_MOTION_DOT": 8.28e-06, "MEAN_MOTION_DDOT": 0}, "tle": {"line1": "1 34307U 93036ND  25358.18481690  .00000828  00000+0  76074-3 0  9992", "line2": "2 34307  74.0541 294.7509 0391789 123.1652 306.2657 13.54338868830170"}}, "geometry": {"type": "Point", "coordinates": [-24.36464894391642, 66.75001062319325]}}, {"type": "Feature", "properties": {"norad_id": 34313, "name": "COSMOS 2251 DEB", "group": "cosmos-2251-debris", "lat": 21.939157328179697, "lon": 93.6647132406831, "alt_km": 502.44306866430634, "timestamp": "2025-12-24T16:52:41.931387+00:00", "meta": {"OBJECT_NAME": "COSMOS 2251 DEB", "OBJECT_ID": "1993-036NK", "EPOCH": "2025-12-24T05:08:32.364672", "MEAN_MOTION": 15.21074555, "ECCENTRICITY": 0.00121952, "INCLINATION": 73.9711, "RA_OF_ASC_NODE": 281.3448, "ARG_OF_PERICENTER": 63.3975, "MEAN_ANOMALY": 296.847, "EPHEMERIS_TYPE": 0, "CLASSIFICATION_TYPE": "U", "NORAD_CAT_ID": 34313, "ELEMENT_SET_NO": 999, "REV_AT_EPOCH": 89239, "BSTAR": 0.0048498935, "MEAN_MOTION_DOT": 0.00109623, "MEAN_MOTION_DDOT": 0}, "tle": {"line1": "1 34313U 93036NK  25358.21426348  .00109623  00000+0  48499-2 0  9994", "line2": "2 34313  73.9711 281.3448 0012195  63.3975 296.8470 15.21074555892397"}}, "geometry": {"type": "Point", "coordinates": [93.6647132406831, 21.939157328179697]}}, {"type": "Feature", "properties": {"norad_id": 34314, "name": "COSMOS 2251 DEB", "group": "cosmos-2251-debris", "lat": 72.0559775105795, "lon": -10.633733956280546, "alt_km": 780.169915814492, "timestamp": "2025-12-24T16:52:41.931399+00:00", "meta": {"OBJECT_NAME": "COSMOS 2251 DEB", "OBJECT_ID": "1993-036NL", "EPOCH": "2025-12-24T05:12:16.576128", "MEAN_MOTION": 14.17452038, "ECCENTRICITY": 0.01034586, "INCLINATION": 74.0062, "RA_OF_ASC_NODE": 287.9017, "ARG_OF_PERICENTER": 30.8649, "MEAN_ANOMALY": 88.9357, "EPHEMERIS_TYPE": 0, "CLASSIFICATION_TYPE": "U", "NORAD_CAT_ID": 34314, "ELEMENT_SET_NO": 999, "REV_AT_EPOCH": 86820, "BSTAR": 0.00064316107, "MEAN_MOTION_DOT": 1.349e-05, "MEAN_MOTION_DDOT": 0}, "tle": {"line1": "1 34314U 93036NL  25358.21685852  .00001349  00000+0  64316-3 0  9995", "line2": "2 34314  74.0062 287.9017 0103458  30.8649  88.9357 14.17452038868200"}}, "geometry": {"type": "Point", "coordinates": [-10.633733956280546, 72.0559775105795]}}, {"type": "Feature", "properties": {"norad_id": 34316, "name": "COSMOS 2251 DEB", "group": "cosmos-2251-debris", "lat": -57.12142370750355, "lon": 159.1477913284364, "alt_km": 603.4907676853145, "timestamp": "2025-12-24T16:52:41.931409+00:00", "meta": {"OBJECT_NAME": "COSMOS 2251 DEB", "OBJECT_ID": "1993-036NN", "EPOCH": "2025-12-24T06:08:53.987424", "MEAN_MOTION": 14.92185919, "ECCENTRICITY": 0.00091448, "INCLINATION": 74.0659, "RA_OF_ASC_NODE": 313.8131, "ARG_OF_PERICENTER": 34.9894, "MEAN_ANOMALY": 325.1888, "EPHEMERIS_TYPE": 0, "CLASSIFICATION_TYPE": "U", "NORAD_CAT_ID": 34316, "ELEMENT_SET_NO": 999, "REV_AT_EPOCH": 89381, "BSTAR": 0.0019870475, "MEAN_MOTION_DOT": 0.00020279, "MEAN_MOTION_DDOT": 0}, "tle": {"line1": "1 34316U 93036NN  25358.25618041  .00020279  00000+0  19870-2 0  9994", "line2": "2 34316  74.0659 313.8131 0009144  34.9894 325.1888 14.92185919893818"}}, "geometry": {"type": "Point", "coordinates": [159.1477913284364, -57.12142370750355]}}, {"type": "Feature", "properties": {"norad_id": 34317, "name": "COSMOS 2251 DEB", "group": "cosmos-2251-debris", "lat": -69.1135527100952, "lon": -33.019900071778125, "alt_km": 970.4593137815791, "timestamp": "2025-12-24T16:52:41.931419+00:00", "meta": {"OBJECT_NAME": "COSMOS 2251 DEB", "OBJECT_ID": "1993-036NP", "EPOCH": "2025-12-24T03:29:11.114592", "MEAN_MOTION": 13.65136055, "ECCENTRICITY": 0.03369438, "INCLINATION": 73.9242, "RA_OF_ASC_NODE": 16.9811, "ARG_OF_PERICENTER": 4.0434, "MEAN_ANOMALY": 62.0268, "EPHEMERIS_TYPE": 0, "CLASSIFICATION_TYPE": "U", "NORAD_CAT_ID": 34317, "ELEMENT_SET_NO": 999, "REV_AT_EPOCH": 83775, "BSTAR": 0.0006000635, "MEAN_MOTION_DOT": 6.94e-06, "MEAN_MOTION_DDOT": 0}, "tle": {"line1": "1 34317U 93036NP  25358.14526753  .00000694  00000+0  60006-3 0  9998", "line2": "2 34317  73.9242  16.9811 0336943   4.0434  62.0268 13.65136055837755"}}, "geometry": {"type": "Point", "coordinates": [-33.019900071778125, -69.1135527100952]}}, {"type": "Feature", "properties": {"norad_id": 34321, "name": "COSMOS 2251 DEB", "group": "cosmos-2251-debris", "lat": 25.00472899063804, "lon": 141.56110502229564, "alt_km": 730.5034619859734, "timestamp": "2025-12-24T16:52:41.931430+00:00", "meta": {"OBJECT_NAME": "COSMOS 2251 DEB", "OBJECT_ID": "1993-036NT", "EPOCH": "2025-12-24T02:23:24.155232", "MEAN_MOTION": 14.50102575, "ECCENTRICITY": 0.00160356, "INCLINATION": 74.0278, "RA_OF_ASC_NODE": 135.0183, "ARG_OF_PERICENTER": 263.9003, "MEAN_ANOMALY": 211.9885, "EPHEMERIS_TYPE": 0, "CLASSIFICATION_TYPE": "U", "NORAD_CAT_ID": 34321, "ELEMENT_SET_NO": 999, "REV_AT_EPOCH": 88651, "BSTAR": 0.00056133502, "MEAN_MOTION_DOT": 2.155e-05, "MEAN_MOTION_DDOT": 0}, "tle": {"line1": "1 34321U 93036NT  25358.09958513  .00002155  00000+0  56134-3 0  9991", "line2": "2 34321  74.0278 135.0183 0016035 263.9003 211.9885 14.50102575886514"}}, "geometry": {"type": "Point", "coordinates": [141.56110502229564, 25.00472899063804]}}, {"type": "Feature", "properties": {"norad_id": 34323, "name": "COSMOS 2251 DEB", "group": "cosmos-2251-debris", "lat": 15.75728017732343, "lon": 104.28928178966709, "alt_km": 668.7446596882519, "timestamp": "2025-12-24T16:52:41.931440+00:00", "meta": {"OBJECT_NAME": "COSMOS 2251 DEB", "OBJECT_ID": "1993-036NV", "EPOCH": "2025-12-24T01:19:33.547296", "MEAN_MOTION": 14.74760101, "ECCENTRICITY": 0.00574879, "INCLINATION": 73.9538, "RA_OF_ASC_NODE": 100.9029, "ARG_OF_PERICENTER": 142.0885, "MEAN_ANOMALY": 35.9909, "EPHEMERIS_TYPE": 0, "CLASSIFICATION_TYPE": "U", "NORAD_CAT_ID": 34323, "ELEMENT_SET_NO": 999, "REV_AT_EPOCH": 88606, "BSTAR": 0.0021858052, "MEAN_MOTION_DOT": 0.00015019, "MEAN_MOTION_DDOT": 0}, "tle": {"line1": "1 34323U 93036NV  25358.05524939  .00015019  00000+0  21858-2 0  9997", "line2": "2 34323  73.9538 100.9029 0057487 142.0885  35.9909 14.74760101886066"}}, "geometry": {"type": "Point", "coordinates": [104.28928178966709, 15.75728017732343]}}, {"type": "Feature", "properties": {"norad_id": 34325, "name": "COSMOS 2251 DEB", "group": "cosmos-2251-debris", "lat": 73.50154720056517, "lon": -85.96484501888118, "alt_km": 876.1817646742165, "timestamp": "2025-12-24T16:52:41.931450+00:00", "meta": {"OBJECT_NAME": "COSMOS 2251 DEB", "OBJECT_ID": "1993-036NX", "EPOCH": "2025-12-23T22:21:01.669248", "MEAN_MOTION": 14.04541761, "ECCENTRICITY": 0.0191474, "INCLINATION": 73.8704, "RA_OF_ASC_NODE": 173.0871, "ARG_OF_PERICENTER": 188.3286, "MEAN_ANOMALY": 325.3555, "EPHEMERIS_TYPE": 0, "CLASSIFICATION_TYPE": "U", "NORAD_CAT_ID": 34325, "ELEMENT_SET_NO": 999, "REV_AT_EPOCH": 85672, "BSTAR": 0.0019756, "MEAN_MOTION_DOT": 3.691e-05, "MEAN_MOTION_DDOT": 0}, "tle": {"line1": "1 34325U 93036NX  25357.93126932  .00003691  00000+0  19756-2 0  9993", "line2": "2 34325  73.8704 173.0871 0191474 188.3286 325.3555 14.04541761856726"}}, "geometry": {"type": "Point", "coordinates": [-85.96484501888118, 73.50154720056517]}}, {"type": "Feature", "properties": {"norad_id": 34327, "name": "COSMOS 2251 DEB", "group": "cosmos-2251-debris", "lat": -38.65346314095645, "lon": 134.63874917924804, "alt_km": 582.3925773477959, "timestamp": "2025-12-24T16:52:41.931461+00:00", "meta": {"OBJECT_NAME": "COSMOS 2251 DEB", "OBJECT_ID": "1993-036NZ", "EPOCH": "2025-12-23T16:57:16.638048", "MEAN_MOTION": 14.89413751, "ECCENTRICITY": 0.00335796, "INCLINATION": 73.9943, "RA_OF_ASC_NODE": 149.9084, "ARG_OF_PERICENTER": 324.1621, "MEAN_ANOMALY": 52.7825, "EPHEMERIS_TYPE": 0, "CLASSIFICATION_TYPE": "U", "NORAD_CAT_ID": 34327, "ELEMENT_SET_NO": 999, "REV_AT_EPOCH": 89671, "BSTAR": 0.0013480628, "MEAN_MOTION_DOT": 0.00012936, "MEAN_MOTION_DDOT": 0}, "tle": {"line1": "1 34327U 93036NZ  25357.70644257  .00012936  00000+0  13481-2 0  9996", "line2": "2 34327  73.9943 149.9084 0033579 324.1621  52.7825 14.89413751896710"}}, "geometry": {"type": "Point", "coordinates": [134.63874917924804, -38.65346314095645]}}]}